stk.v.11

BEGIN Ephemeris

NumberOfEphemerisPoints	10

ScenarioEpoch	0.000000
InterpolationMethod	Lagrange
InterpolationOrder 7
CentralBody	Earth
CoordinateSystem	J2000


EphemerisTimePosVel

0.000000 69.000000 59.000000 49.000000 69.000000 59.000000 49.000000
1.000000 70.000000 60.000000 50.000000 70.000000 60.000000 50.000000
2.000000 71.000000 61.000000 51.000000 71.000000 61.000000 51.000000
3.000000 72.000000 62.000000 52.000000 72.000000 62.000000 52.000000
4.000000 73.000000 63.000000 53.000000 73.000000 63.000000 53.000000
5.000000 74.000000 64.000000 54.000000 74.000000 64.000000 54.000000
6.000000 75.000000 65.000000 55.000000 75.000000 65.000000 55.000000
7.000000 76.000000 66.000000 56.000000 76.000000 66.000000 56.000000
8.000000 77.000000 67.000000 57.000000 77.000000 67.000000 57.000000
9.000000 78.000000 68.000000 58.000000 78.000000 68.000000 58.000000

END Ephemeris
